[{"OBJECT_NAME":"STARLINK-34745","OBJECT_ID":"2025-165B","EPOCH":"2026-03-09T17:33:29.168640","MEAN_MOTION":15.05648923,"ECCENTRICITY":0.00014386,"INCLINATION":97.6033,"RA_OF_ASC_NODE":147.2221,"ARG_OF_PERICENTER":120.0133,"MEAN_ANOMALY":240.1236,"EPHEMERIS_TYPE":0,"CLASSIFICATION_TYPE":"U","NORAD_CAT_ID":65057,"ELEMENT_SET_NO":999,"REV_AT_EPOCH":3479,"BSTAR":0.00052718717,"MEAN_MOTION_DOT":7.554e-5,"MEAN_MOTION_DDOT":0},{"OBJECT_NAME":"OKEAN-3","OBJECT_ID":"1991-039A","EPOCH":"2026-03-09T19:29:17.530944","MEAN_MOTION":15.0480588,"ECCENTRICITY":0.00139411,"INCLINATION":82.519,"RA_OF_ASC_NODE":336.7249,"ARG_OF_PERICENTER":337.9296,"MEAN_ANOMALY":22.1329,"EPHEMERIS_TYPE":0,"CLASSIFICATION_TYPE":"U","NORAD_CAT_ID":21397,"ELEMENT_SET_NO":999,"REV_AT_EPOCH":86505,"BSTAR":0.00031884915,"MEAN_MOTION_DOT":4.536e-5,"MEAN_MOTION_DDOT":0}]
